IRIDIUM 166             
1 43570U 18061B   24067.44498235  .00000439  00000+0  14981-3 0  9994
2 43570  86.3958  44.3148 0002453  94.2914 265.8562 14.34216881294183
IRIDIUM 158             
1 43571U 18061C   24067.41326478  .00000246  00000+0  80757-4 0  9992
2 43571  86.3959  44.3372 0002455  87.1187 273.0290 14.34218398294149
IRIDIUM 165             
1 43572U 18061D   24067.43863662  .00000246  00000+0  80817-4 0  9993
2 43572  86.3960  44.3572 0002516  87.1492 272.9992 14.34218858294172
IRIDIUM 155             
1 43573U 18061E   24067.47032871  .00000505  00000+0  17307-3 0  9999
2 43573  86.3957  44.2540 0002098  92.6276 267.5160 14.34225676294149
IRIDIUM 154             
1 43574U 18061F   24067.45133321  .00000511  00000+0  17556-3 0  9993
2 43574  86.3960  44.3547 0002145  81.4195 278.7244 14.34220472294192
IRIDIUM 163             
1 43575U 18061G   24067.43229601 -.00000054  00000+0 -26501-4 0  9994
2 43575  86.3957  44.3046 0002000  85.4108 274.7316 14.34216320294161
IRIDIUM 156             
1 43576U 18061H   24067.47668812  .00000493  00000+0  16901-3 0  9997
2 43576  86.3957  44.2917 0002393  90.3929 269.7541 14.34221654294169
IRIDIUM 164             
1 43577U 18061J   24067.45766611  .00000222  00000+0  72311-4 0  9990
2 43577  86.3959  44.3271 0002461  84.5167 275.6309 14.34218600294201
